{"epoch":1784817359,"count":18317,"objects":[{"id":"66664","name":"SOYUZ MS-28","type":"PAYLOAD","l1":"1 66664U 25275A   26204.18538858  .00009623  00000-0  18183-3 0  9993","l2":"2 66664  51.6313 121.9488 0006906 328.2241  31.8329 15.49110422576750"},{"id":"67796","name":"DRAGON FREEDOM 3","type":"PAYLOAD","l1":"1 67796U 26031A   26204.18538858  .00009623  00000-0  18183-3 0  9991","l2":"2 67796  51.6313 121.9488 0006906 328.2241  31.8329 15.49110422577039"},{"id":"69180","name":"SZ-23","type":"PAYLOAD","l1":"1 69180U 26113A   26204.03437983  .00011304  00000-0  14912-3 0  9997","l2":"2 69180  41.4690 104.3124 0001740 306.7625  53.3054 15.58280026298181"},{"id":"100057","name":"SOYUZ MS-29","type":"PAYLOAD","l1":"1 A0057U 26162A   26204.18538858  .00009623  00000-0  18183-3 0  9993","l2":"2 A0057  51.6313 121.9488 0006906 328.2241  31.8329 15.49110422576912"}]}